[{"OBJECT_NAME":"OBJECT C","OBJECT_ID":"2023-091C","EPOCH":"2026-03-09T22:19:51.473568","MEAN_MOTION":15.24718365,"ECCENTRICITY":0.0013257,"INCLINATION":97.5143,"RA_OF_ASC_NODE":130.8747,"ARG_OF_PERICENTER":96.9232,"MEAN_ANOMALY":263.3514,"EPHEMERIS_TYPE":0,"CLASSIFICATION_TYPE":"U","NORAD_CAT_ID":57168,"ELEMENT_SET_NO":999,"REV_AT_EPOCH":14912,"BSTAR":0.00051490472,"MEAN_MOTION_DOT":0.00012709,"MEAN_MOTION_DDOT":0},{"OBJECT_NAME":"STARLINK-30869","OBJECT_ID":"2023-183A","EPOCH":"2026-03-09T06:39:24.023232","MEAN_MOTION":15.26740225,"ECCENTRICITY":0.00015115,"INCLINATION":43.0025,"RA_OF_ASC_NODE":43.7449,"ARG_OF_PERICENTER":264.8009,"MEAN_ANOMALY":95.267,"EPHEMERIS_TYPE":0,"CLASSIFICATION_TYPE":"U","NORAD_CAT_ID":58437,"ELEMENT_SET_NO":999,"REV_AT_EPOCH":12667,"BSTAR":-1.4148847e-5,"MEAN_MOTION_DOT":-6.39e-6,"MEAN_MOTION_DDOT":0}]
